NORAD_CAT_ID,OBJECT_NAME,OBJECT_TYPE,EPOCH,MEAN_MOTION,ECCENTRICITY,INCLINATION,RA_OF_ASC_NODE,ARG_OF_PERICENTER,MEAN_ANOMALY,BSTAR,MEAN_MOTION_DOT,MEAN_MOTION_DDOT,TLE_LINE0,TLE_LINE1,TLE_LINE2,SEMIMAJOR_AXIS,PERIOD,APOGEE,PERIGEE,DECAYED
53536.0,STARLINK-4053,PAYLOAD,2024-02-12 12:09:23,15.08837812,0.0001168,53.2174,218.6803,95.0614,265.0511,0.00011815,1.593e-05,0.0,0 STARLINK-4053,1 53536U 22101K   24043.50652025  .00001593  00000-0  11815-3 0  9993,2 53536  53.2174 218.6803 0001168  95.0614 265.0511 15.08837812 82143,6917.887,95.438,540.56,538.944,0.0
53536.0,STARLINK-4053,PAYLOAD,2024-02-12 18:30:55,15.08843915,0.000115,53.2165,217.4911,90.5176,269.5948,0.00017236,2.457e-05,0.0,0 STARLINK-4053,1 53536U 22101K   24043.77147882  .00002457  00000-0  17236-3 0  9995,2 53536  53.2165 217.4911 0001150  90.5176 269.5948 15.08843915 82182,6917.868,95.437,540.529,538.938,0.0
53536.0,STARLINK-4053,PAYLOAD,2024-02-13 04:03:14,15.08840883,0.0001124,53.2157,215.7075,79.2474,280.8645,0.00010901,1.448e-05,0.0,0 STARLINK-4053,1 53536U 22101K   24044.16892007  .00001448  00000-0  10901-3 0  9996,2 53536  53.2157 215.7075 0001124  79.2474 280.8645 15.08840883 82249,6917.878,95.437,540.52,538.965,0.0
53536.0,STARLINK-4053,PAYLOAD,2024-02-13 19:57:05,15.08845616,0.0001108,53.2167,212.735,92.2531,267.8588,0.00017607,2.516e-05,0.0,0 STARLINK-4053,1 53536U 22101K   24044.83131843  .00002516  00000-0  17607-3 0  9991,2 53536  53.2167 212.7350 0001108  92.2531 267.8588 15.08845616 82345,6917.863,95.437,540.495,538.962,0.0
53536.0,STARLINK-4053,PAYLOAD,2024-02-14 03:54:01,15.08841277,0.0001024,53.2162,211.2471,84.9955,275.1154,7.6295e-05,9.27e-06,0.0,0 STARLINK-4053,1 53536U 22101K   24045.16252005  .00000927  00000-0  76295-4 0  9995,2 53536  53.2162 211.2471 0001024  84.9955 275.1154 15.08841277 82398,6917.876,95.437,540.45,539.033,0.0
53536.0,STARLINK-4053,PAYLOAD,2024-02-14 19:47:52,15.08846616,0.000127,53.2165,208.2724,79.1767,280.9368,8.9658e-05,1.14e-05,0.0,0 STARLINK-4053,1 53536U 22101K   24045.82491684  .00001140  00000-0  89658-4 0  9991,2 53536  53.2165 208.2724 0001270  79.1767 280.9368 15.08846616 82492,6917.86,95.437,540.604,538.847,0.0
53536.0,STARLINK-4053,PAYLOAD,2024-02-15 03:44:49,15.08834301,0.0001224,53.2172,206.7886,87.0754,273.0378,-3.8457e-05,-9e-06,0.0,0 STARLINK-4053,1 53536U 22101K   24046.15612406 -.00000900  00000-0 -38457-4 0  9991,2 53536  53.2172 206.7886 0001224  87.0754 273.0378 15.08834301 82543,6917.898,95.438,540.61,538.916,0.0
53536.0,STARLINK-4053,PAYLOAD,2024-02-15 14:52:31,15.08828497,0.0001656,53.2172,204.7067,83.9405,276.1776,-6.6558e-05,-1.347e-05,0.0,0 STARLINK-4053,1 53536U 22101K   24046.61981151 -.00001347  00000-0 -66558-4 0  9997,2 53536  53.2172 204.7067 0001656  83.9405 276.1776 15.08828497 82612,6917.916,95.438,540.926,538.635,0.0
53536.0,STARLINK-4053,PAYLOAD,2024-02-15 19:38:41,15.08830887,0.0001554,53.2162,203.8128,82.1461,277.9708,-0.0001012,-1.898e-05,0.0,0 STARLINK-4053,1 53536U 22101K   24046.81853149 -.00001898  00000-0 -10120-3 0  9998,2 53536  53.2162 203.8128 0001554  82.1461 277.9708 15.08830887 82642,6917.908,95.438,540.848,538.698,0.0
53536.0,STARLINK-4053,PAYLOAD,2024-02-16 14:43:17,15.08851613,0.0001337,53.2156,200.2462,84.3719,275.7426,0.00033499,5.049e-05,0.0,0 STARLINK-4053,1 53536U 22101K   24047.61340262  .00005049  00000-0  33499-3 0  9998,2 53536  53.2156 200.2462 0001337  84.3719 275.7426 15.08851613 82762,6917.845,95.437,540.635,538.785,0.0
53536.0,STARLINK-4053,PAYLOAD,2024-02-16 19:29:27,15.0885973,0.000129,53.2142,199.3533,86.3948,273.7192,0.00052354,8.058e-05,0.0,0 STARLINK-4053,1 53536U 22101K   24047.81211997  .00008058  00000-0  52354-3 0  9996,2 53536  53.2142 199.3533 0001290  86.3948 273.7192 15.08859730 82797,6917.82,95.436,540.577,538.793,0.0
53536.0,STARLINK-4053,PAYLOAD,2024-02-17 14:34:05,15.08843056,0.0001328,53.2146,195.7853,76.9912,283.1228,0.00021012,3.058e-05,0.0,0 STARLINK-4053,1 53536U 22101K   24048.60700898  .00003058  00000-0  21012-3 0  9999,2 53536  53.2146 195.7853 0001328  76.9912 283.1228 15.08843056 82917,6917.871,95.437,540.655,538.817,0.0
53536.0,STARLINK-4053,PAYLOAD,2024-02-17 16:09:28,15.08845852,0.0001281,53.2157,195.4877,94.0821,266.0317,0.00022173,3.243e-05,0.0,0 STARLINK-4053,1 53536U 22101K   24048.67324677  .00003243  00000-0  22173-3 0  9998,2 53536  53.2157 195.4877 0001281  94.0821 266.0317 15.08845852 82926,6917.863,95.437,540.614,538.841,0.0
53536.0,STARLINK-4053,PAYLOAD,2024-02-18 14:24:52,15.08850068,0.000144,53.2158,191.3267,95.6366,264.479,0.00054822,8.45e-05,0.0,0 STARLINK-4053,1 53536U 22101K   24049.60060699  .00008450  00000-0  54822-3 0  9994,2 53536  53.2158 191.3267 0001440  95.6366 264.4790 15.08850068 83061,6917.85,95.437,540.711,538.718,0.0
53536.0,STARLINK-4053,PAYLOAD,2024-02-18 19:11:01,15.08860119,0.0001315,53.2144,190.4324,90.7,269.4143,0.00077376,0.00012055,0.0,0 STARLINK-4053,1 53536U 22101K   24049.79932336  .00012055  00000-0  77376-3 0  9995,2 53536  53.2144 190.4324 0001315  90.7000 269.4143 15.08860119 83090,6917.819,95.436,540.594,538.774,0.0
53536.0,STARLINK-4053,PAYLOAD,2024-02-19 09:29:30,15.08839372,0.0001144,53.2159,187.7574,84.7124,275.3999,9.6212e-05,1.244e-05,0.0,0 STARLINK-4053,1 53536U 22101K   24050.39548858  .00001244  00000-0  96212-4 0  9994,2 53536  53.2159 187.7574 0001144  84.7124 275.3999 15.08839372 83184,6917.882,95.438,540.539,538.956,0.0
53536.0,STARLINK-4053,PAYLOAD,2024-02-19 14:15:39,15.08842163,0.0001341,53.2153,186.8661,91.4433,268.6712,0.0001696,2.412e-05,0.0,0 STARLINK-4053,1 53536U 22101K   24050.59420845  .00002412  00000-0  16960-3 0  9990,2 53536  53.2153 186.8661 0001341  91.4433 268.6712 15.08842163 83216,6917.874,95.437,540.666,538.811,0.0
53536.0,STARLINK-4053,PAYLOAD,2024-02-19 15:51:02,15.08841587,0.0001406,53.2154,186.5686,97.5828,262.5323,0.00022984,3.372e-05,0.0,0 STARLINK-4053,1 53536U 22101K   24050.66044782  .00003372  00000-0  22984-3 0  9999,2 53536  53.2154 186.5686 0001406  97.5828 262.5323 15.08841587 83229,6917.876,95.437,540.713,538.768,0.0
53536.0,STARLINK-4053,PAYLOAD,2024-02-20 12:31:03,15.08836751,0.0001427,53.2168,182.7018,89.9275,270.188,0.00017615,2.516e-05,0.0,0 STARLINK-4053,1 53536U 22101K   24051.52157183  .00002516  00000-0  17615-3 0  9999,2 53536  53.2168 182.7018 0001427  89.9275 270.1880 15.08836751 83359,6917.89,95.438,540.743,538.768,0.0
53536.0,STARLINK-4053,PAYLOAD,2024-02-20 14:06:26,15.08842357,0.0001533,53.2166,182.4052,97.6447,262.4719,0.00017604,2.515e-05,0.0,0 STARLINK-4053,1 53536U 22101K   24051.58780995  .00002515  00000-0  17604-3 0  9995,2 53536  53.2166 182.4052 0001533  97.6447 262.4719 15.08842357 83362,6917.873,95.437,540.799,538.678,0.0
53536.0,STARLINK-4053,PAYLOAD,2024-02-20 15:41:49,15.08844269,0.00015,53.2167,182.1096,97.7062,262.4101,0.00022991,3.373e-05,0.0,0 STARLINK-4053,1 53536U 22101K   24051.65404953  .00003373  00000-0  22991-3 0  9998,2 53536  53.2167 182.1096 0001500  97.7062 262.4101 15.08844269 83376,6917.867,95.437,540.77,538.695,0.0
53536.0,STARLINK-4053,PAYLOAD,2024-02-21 15:32:36,15.08844801,0.0001579,53.2164,177.6497,100.378,259.739,0.0002109,3.07e-05,0.0,0 STARLINK-4053,1 53536U 22101K   24052.64764923  .00003070  00000-0  21090-3 0  9997,2 53536  53.2164 177.6497 0001579 100.3780 259.7390 15.08844801 83529,6917.866,95.437,540.823,538.638,0.0
53536.0,STARLINK-4053,PAYLOAD,2024-02-22 12:12:37,15.0883958,0.0001357,53.2165,173.7833,91.8726,268.2422,6.8171e-05,7.97e-06,0.0,0 STARLINK-4053,1 53536U 22101K   24053.50877154  .00000797  00000-0  68171-4 0  9999,2 53536  53.2165 173.7833 0001357  91.8726 268.2422 15.08839580 83652,6917.882,95.438,540.685,538.808,0.0
53536.0,STARLINK-4053,PAYLOAD,2024-02-22 13:48:00,15.08842552,0.0001402,53.2151,173.485,87.6434,272.4719,2.4111e-05,9.6e-07,0.0,0 STARLINK-4053,1 53536U 22101K   24053.57501076  .00000096  00000-0  24111-4 0  9991,2 53536  53.2151 173.4850 0001402  87.6434 272.4719 15.08842552 83663,6917.873,95.437,540.707,538.768,0.0
53536.0,STARLINK-4053,PAYLOAD,2024-02-22 15:23:24,15.08842841,0.0001573,53.2163,173.1877,83.3722,276.7449,0.00011003,1.464e-05,0.0,0 STARLINK-4053,1 53536U 22101K   24053.64125108  .00001464  00000-0  11003-3 0  9992,2 53536  53.2163 173.1877 0001573  83.3722 276.7449 15.08842841 83673,6917.872,95.437,540.825,538.649,0.0
53536.0,STARLINK-4053,PAYLOAD,2024-02-23 13:38:47,15.0884631,0.0001579,53.2158,169.0236,85.7819,274.3354,0.00016464,2.334e-05,0.0,0 STARLINK-4053,1 53536U 22101K   24054.56861006  .00002334  00000-0  16464-3 0  9991,2 53536  53.2158 169.0236 0001579  85.7819 274.3354 15.08846310 83819,6917.861,95.437,540.818,538.634,0.0
53536.0,STARLINK-4053,PAYLOAD,2024-02-23 16:49:34,15.08851214,0.0001573,53.2158,168.4289,85.4289,274.6882,0.00029832,4.464e-05,0.0,0 STARLINK-4053,1 53536U 22101K   24054.70108850  .00004464  00000-0  29832-3 0  9997,2 53536  53.2158 168.4289 0001573  85.4289 274.6882 15.08851214 83832,6917.846,95.437,540.799,538.623,0.0
53536.0,STARLINK-4053,PAYLOAD,2024-02-24 11:54:12,15.08841417,0.0001904,53.2166,164.8605,91.1183,269.0028,0.00011863,1.6e-05,0.0,0 STARLINK-4053,1 53536U 22101K   24055.49597428  .00001600  00000-0  11863-3 0  9991,2 53536  53.2166 164.8605 0001904  91.1183 269.0028 15.08841417 83955,6917.876,95.437,541.058,538.424,0.0
53536.0,STARLINK-4053,PAYLOAD,2024-02-24 13:29:35,15.08842226,0.0001643,53.2159,164.5628,92.8421,267.2759,0.00015207,2.133e-05,0.0,0 STARLINK-4053,1 53536U 22101K   24055.56221352  .00002133  00000-0  15207-3 0  9997,2 53536  53.2159 164.5628 0001643  92.8421 267.2759 15.08842226 83963,6917.874,95.437,540.875,538.602,0.0
53536.0,STARLINK-4053,PAYLOAD,2024-02-25 13:20:21,15.0885692,0.0001571,53.2167,160.1033,91.5595,268.5577,0.00039991,6.085e-05,0.0,0 STARLINK-4053,1 53536U 22101K   24056.55580853  .00006085  00000-0  39991-3 0  9997,2 53536  53.2167 160.1033 0001571  91.5595 268.5577 15.08856920 84118,6917.829,95.436,540.78,538.607,0.0
